{"fetched_at":"2026-07-17T17:37:56.755Z","source":"https://celestrak.org/NORAD/elements/gp.php?GROUP=qianfan&FORMAT=JSON","constellation":"qianfan","records":[{"OBJECT_NAME":"QIANFAN-65","OBJECT_ID":"2025-016L","EPOCH":"2026-07-17T06:59:32.072352","CLASSIFICATION_TYPE":"U","MEAN_MOTION":13.51030373,"ECCENTRICITY":0.00160289,"INCLINATION":88.9696,"RA_OF_ASC_NODE":80.566,"ARG_OF_PERICENTER":77.585,"MEAN_ANOMALY":282.7094,"EPHEMERIS_TYPE":0,"NORAD_CAT_ID":62795,"ELEMENT_SET_NO":999,"REV_AT_EPOCH":7648,"BSTAR":0.00013471355,"MEAN_MOTION_DOT":9.9e-7,"MEAN_MOTION_DDOT":0},{"OBJECT_NAME":"QIANFAN-66","OBJECT_ID":"2025-016M","EPOCH":"2026-07-17T05:54:31.349952","CLASSIFICATION_TYPE":"U","MEAN_MOTION":13.51023511,"ECCENTRICITY":0.00171166,"INCLINATION":88.9716,"RA_OF_ASC_NODE":80.5833,"ARG_OF_PERICENTER":73.8389,"MEAN_ANOMALY":286.4645,"EPHEMERIS_TYPE":0,"NORAD_CAT_ID":62796,"ELEMENT_SET_NO":999,"REV_AT_EPOCH":7652,"BSTAR":0.00011191843,"MEAN_MOTION_DOT":8.5e-7,"MEAN_MOTION_DDOT":0},{"OBJECT_NAME":"QIANFAN-67","OBJECT_ID":"2025-016N","EPOCH":"2026-07-17T06:00:26.879040","CLASSIFICATION_TYPE":"U","MEAN_MOTION":13.51012228,"ECCENTRICITY":0.00170992,"INCLINATION":88.9706,"RA_OF_ASC_NODE":80.5872,"ARG_OF_PERICENTER":79.9244,"MEAN_ANOMALY":280.3836,"EPHEMERIS_TYPE":0,"NORAD_CAT_ID":62797,"ELEMENT_SET_NO":999,"REV_AT_EPOCH":7649,"BSTAR":0.00013777583,"MEAN_MOTION_DOT":0.00000101,"MEAN_MOTION_DDOT":0},{"OBJECT_NAME":"QIANFAN-68","OBJECT_ID":"2025-016P","EPOCH":"2026-07-17T05:48:19.949184","CLASSIFICATION_TYPE":"U","MEAN_MOTION":13.51024888,"ECCENTRICITY":0.00171696,"INCLINATION":88.971,"RA_OF_ASC_NODE":80.641,"ARG_OF_PERICENTER":78.0266,"MEAN_ANOMALY":282.2809,"EPHEMERIS_TYPE":0,"NORAD_CAT_ID":62798,"ELEMENT_SET_NO":999,"REV_AT_EPOCH":7647,"BSTAR":0.00011050466,"MEAN_MOTION_DOT":8.4e-7,"MEAN_MOTION_DDOT":0},{"OBJECT_NAME":"QIANFAN-69","OBJECT_ID":"2025-016Q","EPOCH":"2026-07-17T06:12:01.852992","CLASSIFICATION_TYPE":"U","MEAN_MOTION":13.51018728,"ECCENTRICITY":0.00179057,"INCLINATION":88.9689,"RA_OF_ASC_NODE":80.4625,"ARG_OF_PERICENTER":79.2603,"MEAN_ANOMALY":281.0563,"EPHEMERIS_TYPE":0,"NORAD_CAT_ID":62799,"ELEMENT_SET_NO":999,"REV_AT_EPOCH":7651,"BSTAR":0.00012791409,"MEAN_MOTION_DOT":9.5e-7,"MEAN_MOTION_DDOT":0},{"OBJECT_NAME":"QIANFAN-70","OBJECT_ID":"2025-016R","EPOCH":"2026-07-17T04:49:11.365536","CLASSIFICATION_TYPE":"U","MEAN_MOTION":13.51017092,"ECCENTRICITY":0.00174853,"INCLINATION":88.9709,"RA_OF_ASC_NODE":80.6522,"ARG_OF_PERICENTER":70.9066,"MEAN_ANOMALY":289.3977,"EPHEMERIS_TYPE":0,"NORAD_CAT_ID":62800,"ELEMENT_SET_NO":999,"REV_AT_EPOCH":7646,"BSTAR":0.00011144009,"MEAN_MOTION_DOT":8.4e-7,"MEAN_MOTION_DDOT":0},{"OBJECT_NAME":"QIANFAN-71","OBJECT_ID":"2025-016S","EPOCH":"2026-07-17T04:43:26.759136","CLASSIFICATION_TYPE":"U","MEAN_MOTION":13.51021102,"ECCENTRICITY":0.00178107,"INCLINATION":88.9703,"RA_OF_ASC_NODE":80.6191,"ARG_OF_PERICENTER":82.5768,"MEAN_ANOMALY":277.7406,"EPHEMERIS_TYPE":0,"NORAD_CAT_ID":62801,"ELEMENT_SET_NO":999,"REV_AT_EPOCH":7646,"BSTAR":0.00013335794,"MEAN_MOTION_DOT":9.8e-7,"MEAN_MOTION_DDOT":0},{"OBJECT_NAME":"QIANFAN-72","OBJECT_ID":"2025-016T","EPOCH":"2026-07-17T06:53:33.253152","CLASSIFICATION_TYPE":"U","MEAN_MOTION":13.51014595,"ECCENTRICITY":0.00210419,"INCLINATION":88.9694,"RA_OF_ASC_NODE":80.6019,"ARG_OF_PERICENTER":88.9174,"MEAN_ANOMALY":271.4388,"EPHEMERIS_TYPE":0,"NORAD_CAT_ID":62802,"ELEMENT_SET_NO":999,"REV_AT_EPOCH":7646,"BSTAR":0.0001214966,"MEAN_MOTION_DOT":9.1e-7,"MEAN_MOTION_DDOT":0},{"OBJECT_NAME":"QIANFAN-73","OBJECT_ID":"2025-046A","EPOCH":"2026-07-17T05:45:45.322560","CLASSIFICATION_TYPE":"U","MEAN_MOTION":13.510153,"ECCENTRICITY":0.00142762,"INCLINATION":88.9724,"RA_OF_ASC_NODE":297.5612,"ARG_OF_PERICENTER":209.3854,"MEAN_ANOMALY":150.6496,"EPHEMERIS_TYPE":0,"NORAD_CAT_ID":63159,"ELEMENT_SET_NO":999,"REV_AT_EPOCH":7664,"BSTAR":0.00016632417,"MEAN_MOTION_DOT":0.00000119,"MEAN_MOTION_DDOT":0},{"OBJECT_NAME":"QIANFAN-74","OBJECT_ID":"2025-046B","EPOCH":"2026-07-17T07:08:57.917184","CLASSIFICATION_TYPE":"U","MEAN_MOTION":13.5102315,"ECCENTRICITY":0.000253,"INCLINATION":88.9724,"RA_OF_ASC_NODE":297.4449,"ARG_OF_PERICENTER":105.279,"MEAN_ANOMALY":254.8641,"EPHEMERIS_TYPE":0,"NORAD_CAT_ID":63160,"ELEMENT_SET_NO":999,"REV_AT_EPOCH":7671,"BSTAR":0.00016001177,"MEAN_MOTION_DOT":0.00000115,"MEAN_MOTION_DDOT":0},{"OBJECT_NAME":"QIANFAN-75","OBJECT_ID":"2025-046C","EPOCH":"2026-07-17T06:51:05.850432","CLASSIFICATION_TYPE":"U","MEAN_MOTION":13.51015627,"ECCENTRICITY":0.00152634,"INCLINATION":88.9724,"RA_OF_ASC_NODE":297.6828,"ARG_OF_PERICENTER":213.1024,"MEAN_ANOMALY":146.9173,"EPHEMERIS_TYPE":0,"NORAD_CAT_ID":63161,"ELEMENT_SET_NO":999,"REV_AT_EPOCH":7658,"BSTAR":0.00014378468,"MEAN_MOTION_DOT":0.00000105,"MEAN_MOTION_DDOT":0},{"OBJECT_NAME":"QIANFAN-76","OBJECT_ID":"2025-046D","EPOCH":"2026-07-17T06:45:06.144768","CLASSIFICATION_TYPE":"U","MEAN_MOTION":13.510146,"ECCENTRICITY":0.00127966,"INCLINATION":88.9725,"RA_OF_ASC_NODE":297.6632,"ARG_OF_PERICENTER":212.1711,"MEAN_ANOMALY":147.8661,"EPHEMERIS_TYPE":0,"NORAD_CAT_ID":63162,"ELEMENT_SET_NO":999,"REV_AT_EPOCH":7659,"BSTAR":0.00017919023,"MEAN_MOTION_DOT":0.00000128,"MEAN_MOTION_DDOT":0},{"OBJECT_NAME":"QIANFAN-77","OBJECT_ID":"2025-046E","EPOCH":"2026-07-17T04:44:42.771264","CLASSIFICATION_TYPE":"U","MEAN_MOTION":13.96222469,"ECCENTRICITY":0.00172092,"INCLINATION":88.9727,"RA_OF_ASC_NODE":293.8959,"ARG_OF_PERICENTER":122.0895,"MEAN_ANOMALY":238.1956,"EPHEMERIS_TYPE":0,"NORAD_CAT_ID":63163,"ELEMENT_SET_NO":999,"REV_AT_EPOCH":7865,"BSTAR":0.00015773184,"MEAN_MOTION_DOT":0.00000231,"MEAN_MOTION_DDOT":0},{"OBJECT_NAME":"QIANFAN-78","OBJECT_ID":"2025-046F","EPOCH":"2026-07-17T05:57:46.933632","CLASSIFICATION_TYPE":"U","MEAN_MOTION":13.51009843,"ECCENTRICITY":0.00140689,"INCLINATION":88.9724,"RA_OF_ASC_NODE":297.5284,"ARG_OF_PERICENTER":215.3076,"MEAN_ANOMALY":144.7145,"EPHEMERIS_TYPE":0,"NORAD_CAT_ID":63164,"ELEMENT_SET_NO":999,"REV_AT_EPOCH":7666,"BSTAR":0.00015446481,"MEAN_MOTION_DOT":0.00000112,"MEAN_MOTION_DDOT":0},{"OBJECT_NAME":"QIANFAN-79","OBJECT_ID":"2025-046G","EPOCH":"2026-07-17T06:39:10.280448","CLASSIFICATION_TYPE":"U","MEAN_MOTION":13.5101998,"ECCENTRICITY":0.00139277,"INCLINATION":88.9727,"RA_OF_ASC_NODE":297.6408,"ARG_OF_PERICENTER":213.5649,"MEAN_ANOMALY":146.4621,"EPHEMERIS_TYPE":0,"NORAD_CAT_ID":63165,"ELEMENT_SET_NO":999,"REV_AT_EPOCH":7661,"BSTAR":0.00016096637,"MEAN_MOTION_DOT":0.00000116,"MEAN_MOTION_DDOT":0},{"OBJECT_NAME":"QIANFAN-80","OBJECT_ID":"2025-046H","EPOCH":"2026-07-17T07:03:00.523584","CLASSIFICATION_TYPE":"U","MEAN_MOTION":13.51017087,"ECCENTRICITY":0.00126119,"INCLINATION":88.9724,"RA_OF_ASC_NODE":297.3401,"ARG_OF_PERICENTER":217.5065,"MEAN_ANOMALY":142.5207,"EPHEMERIS_TYPE":0,"NORAD_CAT_ID":63166,"ELEMENT_SET_NO":999,"REV_AT_EPOCH":7677,"BSTAR":0.00016430853,"MEAN_MOTION_DOT":0.00000118,"MEAN_MOTION_DDOT":0}]}
