QIANFAN-65              
1 62795U 25016L   26198.29134343  .00000099  00000+0  13471-3 0  9994
2 62795  88.9696  80.5660 0016028  77.5850 282.7094 13.51030373 76484
QIANFAN-66              
1 62796U 25016M   26198.24619618  .00000085  00000+0  11192-3 0  9996
2 62796  88.9716  80.5833 0017116  73.8389 286.4645 13.51023511 76529
QIANFAN-67              
1 62797U 25016N   26198.25031110  .00000101  00000+0  13778-3 0  9994
2 62797  88.9706  80.5872 0017099  79.9244 280.3836 13.51012228 76493
QIANFAN-68              
1 62798U 25016P   26198.24189756  .00000084  00000+0  11050-3 0  9995
2 62798  88.9710  80.6410 0017169  78.0266 282.2809 13.51024888 76474
QIANFAN-69              
1 62799U 25016Q   26198.25835478  .00000095  00000+0  12791-3 0  9991
2 62799  88.9689  80.4625 0017905  79.2603 281.0563 13.51018728 76517
QIANFAN-70              
1 62800U 25016R   26198.20082599  .00000084  00000+0  11144-3 0  9996
2 62800  88.9709  80.6522 0017485  70.9066 289.3977 13.51017092 76462
QIANFAN-71              
1 62801U 25016S   26198.19683749  .00000098  00000+0  13336-3 0  9999
2 62801  88.9703  80.6191 0017810  82.5768 277.7406 13.51021102 76464
QIANFAN-72              
1 62802U 25016T   26198.28719043  .00000091  00000+0  12150-3 0  9993
2 62802  88.9694  80.6019 0021041  88.9174 271.4388 13.51014595 76463
QIANFAN-73              
1 63159U 25046A   26198.24010790  .00000119  00000+0  16632-3 0  9991
2 63159  88.9724 297.5612 0014276 209.3854 150.6496 13.51015300 76640
QIANFAN-74              
1 63160U 25046B   26198.29789256  .00000115  00000+0  16001-3 0  9994
2 63160  88.9724 297.4449 0002530 105.2790 254.8641 13.51023150 76711
QIANFAN-75              
1 63161U 25046C   26198.28548438  .00000105  00000+0  14378-3 0  9993
2 63161  88.9724 297.6828 0015263 213.1024 146.9173 13.51015627 76587
QIANFAN-76              
1 63162U 25046D   26198.28132112  .00000128  00000+0  17919-3 0  9991
2 63162  88.9725 297.6632 0012796 212.1711 147.8661 13.51014600 76595
QIANFAN-77              
1 63163U 25046E   26198.19771726  .00000231  00000+0  15773-3 0  9993
2 63163  88.9727 293.8959 0017209 122.0895 238.1956 13.96222469 78657
QIANFAN-78              
1 63164U 25046F   26198.24845988  .00000112  00000+0  15446-3 0  9997
2 63164  88.9724 297.5284 0014068 215.3076 144.7145 13.51009843 76665
QIANFAN-79              
1 63165U 25046G   26198.27720232  .00000116  00000+0  16097-3 0  9992
2 63165  88.9727 297.6408 0013927 213.5649 146.4621 13.51019980 76613
QIANFAN-80              
1 63166U 25046H   26198.29375606  .00000118  00000+0  16431-3 0  9990
2 63166  88.9724 297.3401 0012611 217.5065 142.5207 13.51017087 76776
